{"type": "FeatureCollection", "features": [ {"type": "Feature", "properties": {"norad_id": 34375, "name": "IRIDIUM 33 DEB", "group": "iridium-33-debris", "lat": -52.25475293230122, "lon": 5.421915773953896, "alt_km": 876.3572520990756, "timestamp": "2025-12-17T10:52:54.737257+00:00", "meta": {"OBJECT_NAME": "IRIDIUM 33 DEB", "OBJECT_ID": "1997-051FT", "EPOCH": "2025-12-16T11:55:18.280704", "MEAN_MOTION": 14.17999291, "ECCENTRICITY": 0.01035154, "INCLINATION": 86.4323, "RA_OF_ASC_NODE": 181.1851, "ARG_OF_PERICENTER": 114.9637, "MEAN_ANOMALY": 275.7525, "EPHEMERIS_TYPE": 0, "CLASSIFICATION_TYPE": "U", "NORAD_CAT_ID": 34375, "ELEMENT_SET_NO": 999, "REV_AT_EPOCH": 86765, "BSTAR": 0.00039364135, "MEAN_MOTION_DOT": 8.69e-06, "MEAN_MOTION_DDOT": 0}, "tle": {"line1": "1 34375U 97051FT  25350.49673936  .00000869  00000+0  39364-3 0  9996", "line2": "2 34375  86.4323 181.1851 0103515 114.9637 275.7525 14.17999291867658"}}, "geometry": {"type": "Point", "coordinates": [5.421915773953896, -52.25475293230122]}}, {"type": "Feature", "properties": {"norad_id": 34376, "name": "IRIDIUM 33 DEB", "group": "iridium-33-debris", "lat": -79.58812700837822, "lon": -16.2086212786898, "alt_km": 704.328055953024, "timestamp": "2025-12-17T10:52:54.737267+00:00", "meta": {"OBJECT_NAME": "IRIDIUM 33 DEB", "OBJECT_ID": "1997-051FU", "EPOCH": "2025-12-16T10:37:15.311712", "MEAN_MOTION": 14.62620598, "ECCENTRICITY": 0.00276075, "INCLINATION": 86.2983, "RA_OF_ASC_NODE": 4.8755, "ARG_OF_PERICENTER": 154.3706, "MEAN_ANOMALY": 205.8882, "EPHEMERIS_TYPE": 0, "CLASSIFICATION_TYPE": "U", "NORAD_CAT_ID": 34376, "ELEMENT_SET_NO": 999, "REV_AT_EPOCH": 88061, "BSTAR": 0.00099744091, "MEAN_MOTION_DOT": 5.118e-05, "MEAN_MOTION_DDOT": 0}, "tle": {"line1": "1 34376U 97051FU  25350.44253833  .00005118  00000+0  99744-3 0  9992", "line2": "2 34376  86.2983   4.8755 0027607 154.3706 205.8882 14.62620598880617"}}, "geometry": {"type": "Point", "coordinates": [-16.2086212786898, -79.58812700837822]}}, {"type": "Feature", "properties": {"norad_id": 34486, "name": "IRIDIUM 33 DEB", "group": "iridium-33-debris", "lat": -19.670277557233014, "lon": 8.557255720853146, "alt_km": 589.1326300133651, "timestamp": "2025-12-17T10:52:54.737278+00:00", "meta": {"OBJECT_NAME": "IRIDIUM 33 DEB", "OBJECT_ID": "1997-051GB", "EPOCH": "2025-12-16T19:42:35.277696", "MEAN_MOTION": 14.95984781, "ECCENTRICITY": 0.00139155, "INCLINATION": 86.3929, "RA_OF_ASC_NODE": 10.1412, "ARG_OF_PERICENTER": 101.0315, "MEAN_ANOMALY": 77.189, "EPHEMERIS_TYPE": 0, "CLASSIFICATION_TYPE": "U", "NORAD_CAT_ID": 34486, "ELEMENT_SET_NO": 999, "REV_AT_EPOCH": 89047, "BSTAR": 0.0016425428, "MEAN_MOTION_DOT": 0.00018499, "MEAN_MOTION_DDOT": 0}, "tle": {"line1": "1 34486U 97051GB  25350.82124164  .00018499  00000+0  16425-2 0  9990", "line2": "2 34486  86.3929  10.1412 0013915 101.0315  77.1890 14.95984781890479"}}, "geometry": {"type": "Point", "coordinates": [8.557255720853146, -19.670277557233014]}}, {"type": "Feature", "properties": {"norad_id": 34487, "name": "IRIDIUM 33 DEB", "group": "iridium-33-debris", "lat": -3.4516691934216324, "lon": -169.43114463543657, "alt_km": 743.1573562822568, "timestamp": "2025-12-17T10:52:54.737288+00:00", "meta": {"OBJECT_NAME": "IRIDIUM 33 DEB", "OBJECT_ID": "1997-051GC", "EPOCH": "2025-12-16T19:53:25.180224", "MEAN_MOTION": 14.43221481, "ECCENTRICITY": 0.00330568, "INCLINATION": 86.3432, "RA_OF_ASC_NODE": 10.6167, "ARG_OF_PERICENTER": 115.638, "MEAN_ANOMALY": 63.9936, "EPHEMERIS_TYPE": 0, "CLASSIFICATION_TYPE": "U", "NORAD_CAT_ID": 34487, "ELEMENT_SET_NO": 999, "REV_AT_EPOCH": 88307, "BSTAR": 0.00016832889, "MEAN_MOTION_DOT": 5.9e-06, "MEAN_MOTION_DDOT": 0}, "tle": {"line1": "1 34487U 97051GC  25350.82876366  .00000590  00000+0  16833-3 0  9996", "line2": "2 34487  86.3432  10.6167 0033056 115.6380  63.9936 14.43221481883078"}}, "geometry": {"type": "Point", "coordinates": [-169.43114463543657, -3.4516691934216324]}}, {"type": "Feature", "properties": {"norad_id": 34488, "name": "IRIDIUM 33 DEB", "group": "iridium-33-debris", "lat": -2.3176124099281834, "lon": 123.62534216301177, "alt_km": 483.8457714536826, "timestamp": "2025-12-17T10:52:54.737298+00:00", "meta": {"OBJECT_NAME": "IRIDIUM 33 DEB", "OBJECT_ID": "1997-051GD", "EPOCH": "2025-12-16T21:32:08.244096", "MEAN_MOTION": 15.30456144, "ECCENTRICITY": 0.00119742, "INCLINATION": 86.3226, "RA_OF_ASC_NODE": 303.7522, "ARG_OF_PERICENTER": 44.4927, "MEAN_ANOMALY": 315.7281, "EPHEMERIS_TYPE": 0, "CLASSIFICATION_TYPE": "U", "NORAD_CAT_ID": 34488, "ELEMENT_SET_NO": 999, "REV_AT_EPOCH": 89303, "BSTAR": 0.0036758625, "MEAN_MOTION_DOT": 0.00109835, "MEAN_MOTION_DDOT": 0}, "tle": {"line1": "1 34488U 97051GD  25350.89731764  .00109835  00000+0  36759-2 0  9996", "line2": "2 34488  86.3226 303.7522 0011974  44.4927 315.7281 15.30456144893033"}}, "geometry": {"type": "Point", "coordinates": [123.62534216301177, -2.3176124099281834]}}, {"type": "Feature", "properties": {"norad_id": 34492, "name": "IRIDIUM 33 DEB", "group": "iridium-33-debris", "lat": -20.854501134498733, "lon": -28.62350583232279, "alt_km": 869.1474890359805, "timestamp": "2025-12-17T10:52:54.737309+00:00", "meta": {"OBJECT_NAME": "IRIDIUM 33 DEB", "OBJECT_ID": "1997-051GH", "EPOCH": "2025-12-16T23:27:51.526944", "MEAN_MOTION": 14.25813721, "ECCENTRICITY": 0.01887461, "INCLINATION": 86.471, "RA_OF_ASC_NODE": 332.9158, "ARG_OF_PERICENTER": 224.4111, "MEAN_ANOMALY": 192.488, "EPHEMERIS_TYPE": 0, "CLASSIFICATION_TYPE": "U", "NORAD_CAT_ID": 34492, "ELEMENT_SET_NO": 999, "REV_AT_EPOCH": 85119, "BSTAR": 0.0027700414, "MEAN_MOTION_DOT": 7.961e-05, "MEAN_MOTION_DDOT": 0}, "tle": {"line1": "1 34492U 97051GH  25350.97767971  .00007961  00000+0  27700-2 0  9992", "line2": "2 34492  86.4710 332.9158 0188746 224.4111 192.4880 14.25813721851190"}}, "geometry": {"type": "Point", "coordinates": [-28.62350583232279, -20.854501134498733]}}, {"type": "Feature", "properties": {"norad_id": 34497, "name": "IRIDIUM 33 DEB", "group": "iridium-33-debris", "lat": -63.041012630050645, "lon": -122.2584448097654, "alt_km": 798.2485499210534, "timestamp": "2025-12-17T10:52:54.737319+00:00", "meta": {"OBJECT_NAME": "IRIDIUM 33 DEB", "OBJECT_ID": "1997-051GN", "EPOCH": "2025-12-16T03:35:34.476576", "MEAN_MOTION": 14.27464272, "ECCENTRICITY": 0.00784657, "INCLINATION": 86.2776, "RA_OF_ASC_NODE": 50.9446, "ARG_OF_PERICENTER": 328.4277, "MEAN_ANOMALY": 60.2954, "EPHEMERIS_TYPE": 0, "CLASSIFICATION_TYPE": "U", "NORAD_CAT_ID": 34497, "ELEMENT_SET_NO": 999, "REV_AT_EPOCH": 86932, "BSTAR": 0.00047338082, "MEAN_MOTION_DOT": 1.218e-05, "MEAN_MOTION_DDOT": 0}, "tle": {"line1": "1 34497U 97051GN  25350.14970459  .00001218  00000+0  47338-3 0  9992", "line2": "2 34497  86.2776  50.9446 0078465 328.4277  60.2954 14.27464272869329"}}, "geometry": {"type": "Point", "coordinates": [-122.2584448097654, -63.041012630050645]}}, {"type": "Feature", "properties": {"norad_id": 34508, "name": "IRIDIUM 33 DEB", "group": "iridium-33-debris", "lat": -48.98127497291511, "lon": -75.1702588353628, "alt_km": 755.0346610663755, "timestamp": "2025-12-17T10:52:54.737328+00:00", "meta": {"OBJECT_NAME": "IRIDIUM 33 DEB", "OBJECT_ID": "1997-051GZ", "EPOCH": "2025-12-16T18:47:57.463008", "MEAN_MOTION": 14.38460571, "ECCENTRICITY": 0.00664067, "INCLINATION": 86.3704, "RA_OF_ASC_NODE": 100.9292, "ARG_OF_PERICENTER": 159.9314, "MEAN_ANOMALY": 200.4519, "EPHEMERIS_TYPE": 0, "CLASSIFICATION_TYPE": "U", "NORAD_CAT_ID": 34508, "ELEMENT_SET_NO": 999, "REV_AT_EPOCH": 87367, "BSTAR": 0.0010003224, "MEAN_MOTION_DOT": 3.151e-05, "MEAN_MOTION_DDOT": 0}, "tle": {"line1": "1 34508U 97051GZ  25350.78330397  .00003151  00000+0  10003-2 0  9992", "line2": "2 34508  86.3704 100.9292 0066406 159.9314 200.4519 14.38460571873678"}}, "geometry": {"type": "Point", "coordinates": [-75.1702588353628, -48.98127497291511]}}, {"type": "Feature", "properties": {"norad_id": 34521, "name": "IRIDIUM 33 DEB", "group": "iridium-33-debris", "lat": 70.97501207313331, "lon": -162.10625514995291, "alt_km": 675.2673299482676, "timestamp": "2025-12-17T10:52:54.737339+00:00", "meta": {"OBJECT_NAME": "IRIDIUM 33 DEB", "OBJECT_ID": "1997-051HN", "EPOCH": "2025-12-16T19:37:02.270496", "MEAN_MOTION": 14.63402496, "ECCENTRICITY": 0.00020447, "INCLINATION": 86.3799, "RA_OF_ASC_NODE": 28.7533, "ARG_OF_PERICENTER": 194.297, "MEAN_ANOMALY": 165.8185, "EPHEMERIS_TYPE": 0, "CLASSIFICATION_TYPE": "U", "NORAD_CAT_ID": 34521, "ELEMENT_SET_NO": 999, "REV_AT_EPOCH": 88532, "BSTAR": 0.00063886562, "MEAN_MOTION_DOT": 3.324e-05, "MEAN_MOTION_DDOT": 0}, "tle": {"line1": "1 34521U 97051HN  25350.81738739  .00003324  00000+0  63887-3 0  9994", "line2": "2 34521  86.3799  28.7533 0002044 194.2970 165.8185 14.63402496885328"}}, "geometry": {"type": "Point", "coordinates": [-162.10625514995291, 70.97501207313331]}}, {"type": "Feature", "properties": {"norad_id": 34525, "name": "IRIDIUM 33 DEB", "group": "iridium-33-debris", "lat": -59.19204504735182, "lon": 38.72548763808985, "alt_km": 759.8112443544896, "timestamp": "2025-12-17T10:52:54.737349+00:00", "meta": {"OBJECT_NAME": "IRIDIUM 33 DEB", "OBJECT_ID": "1997-051HS", "EPOCH": "2025-12-16T03:39:56.355840", "MEAN_MOTION": 14.42913658, "ECCENTRICITY": 0.00065914, "INCLINATION": 86.3727, "RA_OF_ASC_NODE": 45.3871, "ARG_OF_PERICENTER": 87.2888, "MEAN_ANOMALY": 301.3893, "EPHEMERIS_TYPE": 0, "CLASSIFICATION_TYPE": "U", "NORAD_CAT_ID": 34525, "ELEMENT_SET_NO": 999, "REV_AT_EPOCH": 88137, "BSTAR": 0.00032204715, "MEAN_MOTION_DOT": 1.096e-05, "MEAN_MOTION_DDOT": 0}, "tle": {"line1": "1 34525U 97051HS  25350.15273560  .00001096  00000+0  32205-3 0  9995", "line2": "2 34525  86.3727  45.3871 0006591  87.2888 301.3893 14.42913658881371"}}, "geometry": {"type": "Point", "coordinates": [38.72548763808985, -59.19204504735182]}}]}